0 COSMOS 2251 DEB
1 36455U 93036BBE 13293.01178748  .00038013  00000-0  66220-2 0  1601
2 36455 074.0392 053.6383 0009479 192.3931 167.7437 14.67818546218674
